{"type":"FeatureCollection", "features": [
{"type":"Feature","geometry":{"type":"Polygon","coordinates":[[[86.29541072067279,28.351892620665158],[86.29932094832508,28.35191868429772],[86.30739043698871,28.37147431064057],[86.30770812047705,28.37905334536149],[86.31402619193443,28.38478390379347],[86.32024709740521,28.394065940117287],[86.31665734169192,28.39833085586094],[86.30454491000008,28.38388001399993],[86.29868419739358,28.373703819517957],[86.29466979398204,28.362855313944088],[86.29307234828582,28.35216876342927],[86.29541072067279,28.351892620665158]]]},"properties":{"id":"GL086304E28374N","area_km2":4.028,"kind":"risky","risk_tier":"medium","basin":"Koshi","sub_basin":"Arun","elevation_m":5344,"lake_type":"M(e)","country":"China"},"id":"GL086304E28374N"},
{"type":"Feature","geometry":{"type":"Polygon","coordinates":[[[85.84435379093718,28.36273227497264],[85.84559508145941,28.35774883817253],[85.84936081700006,28.356760862],[85.8721773060001,28.355728618000065],[85.88164259862079,28.35320059671008],[85.89639161605159,28.356806558242567],[85.89659126702273,28.359321135272236],[85.88966555300004,28.36284485900008],[85.87278107200011,28.365355422000103],[85.85938929500007,28.3656571720001],[85.84435379093718,28.36273227497264]]]},"properties":{"id":"GL085870E28360N","area_km2":4.83,"kind":"risky","risk_tier":"medium","basin":"Koshi","sub_basin":"Sun Koshi","elevation_m":5209,"lake_type":"M(e)","country":"China"},"id":"GL085870E28360N"},
{"type":"Feature","geometry":{"type":"Polygon","coordinates":[[[85.84835451651203,28.32542833807297],[85.83722333746243,28.341052446616857],[85.83496732600014,28.33614006200013],[85.82904715483247,28.33560597715942],[85.8224990783366,28.325395715530266],[85.83035202200006,28.324121020000085],[85.83590052400007,28.31905440600006],[85.83634381694364,28.31135494700927],[85.8292772288088,28.309779844962712],[85.83592894056324,28.308599464003695],[85.83822290200003,28.30214574600015],[85.84181733700005,28.300479905000024],[85.84458618006454,28.30427285660695],[85.84835451651203,28.32542833807297]]]},"properties":{"id":"GL085838E28322N","area_km2":5.422,"kind":"risky","risk_tier":"medium","basin":"Koshi","sub_basin":"Sun Koshi","elevation_m":5067,"lake_type":"M(e)","country":"China"},"id":"GL085838E28322N"},
{"type":"Feature","geometry":{"type":"Polygon","coordinates":[[[86.53126262100005,28.136776431000108],[86.52088696996121,28.143268756130734],[86.52318271500009,28.13756617200011],[86.53676877500006,28.129245932000124],[86.54230068540855,28.129675091668823],[86.53126262100005,28.136776431000108]]]},"properties":{"id":"GL086530E28135N","area_km2":1.002,"kind":"risky","risk_tier":"medium","basin":"Koshi","sub_basin":"Tama Koshi","elevation_m":4984,"lake_type":"M(e)","country":"China"},"id":"GL086530E28135N"},
{"type":"Feature","geometry":{"type":"Polygon","coordinates":[[[86.48911196429823,27.849397432563713],[86.48136571600007,27.86061090700007],[86.47338642742706,27.868128734429995],[86.46724699300007,27.870864989999948],[86.46300311291711,27.869176019670242],[86.47011972365307,27.864389624551713],[86.47846224394644,27.855424656154725],[86.48911196429823,27.849397432563713]]]},"properties":{"id":"GL086476E27861N","area_km2":1.608,"kind":"risky","risk_tier":"high","basin":"Koshi","sub_basin":"Tama Koshi","elevation_m":4550,"lake_type":"M(e)","country":"Nepal"},"id":"GL086476E27861N"},
{"type":"Feature","geometry":{"type":"Polygon","coordinates":[[[86.59914739251224,27.781851157660604],[86.60104736918728,27.77781919606469],[86.61598312385354,27.777270831472855],[86.62243078300007,27.773209178000087],[86.6241502948945,27.776178054514922],[86.6181063492016,27.78187341886059],[86.59914739251224,27.781851157660604]]]},"properties":{"id":"GL086612E27779N","area_km2":1.221,"kind":"risky","risk_tier":"high","basin":"Koshi","sub_basin":"Dudh Koshi","elevation_m":4829,"lake_type":"M(e)","country":"Nepal"},"id":"GL086612E27779N"},
{"type":"Feature","geometry":{"type":"Polygon","coordinates":[[[86.91619491490987,27.90244489880873],[86.91186545096713,27.900060692039663],[86.91493849300011,27.897510017000133],[86.93449599568636,27.89476150424254],[86.93560492595543,27.901280302507168],[86.92536606894485,27.900750047534366],[86.91619491490987,27.90244489880873]]]},"properties":{"id":"GL086925E27898N","area_km2":1.376,"kind":"risky","risk_tier":"high","basin":"Koshi","sub_basin":"Dudh Koshi","elevation_m":5002,"lake_type":"M(e)","country":"Nepal"},"id":"GL086925E27898N"},
{"type":"Feature","geometry":{"type":"Polygon","coordinates":[[[87.6332325640001,27.728375028000105],[87.63264206100011,27.730287810000018],[87.63178170500004,27.72904953900007],[87.6332325640001,27.728375028000105]]]},"properties":{"id":"GL087632E27729N","area_km2":0.026,"kind":"risky","risk_tier":"low","basin":"Koshi","sub_basin":"Arun","elevation_m":4938,"lake_type":"M(e)","country":"Nepal"},"id":"GL087632E27729N"},
{"type":"Feature","geometry":{"type":"Polygon","coordinates":[[[87.59635074847836,27.70609248254999],[87.59555642200013,27.704561505000125],[87.59770763406289,27.705101528380624],[87.59635074847836,27.70609248254999]]]},"properties":{"id":"GL087596E27705N","area_km2":0.032,"kind":"risky","risk_tier":"high","basin":"Koshi","sub_basin":"Arun","elevation_m":4772,"lake_type":"M(e)","country":"Nepal"},"id":"GL087596E27705N"},
{"type":"Feature","geometry":{"type":"Polygon","coordinates":[[[86.44074412900007,27.938604741000045],[86.45877088070198,27.95221092312461],[86.45530075667871,27.955724944787708],[86.44944432819024,27.952820872711026],[86.43841662264138,27.94406484283986],[86.4372347205825,27.938330990992377],[86.44074412900007,27.938604741000045]]]},"properties":{"id":"GL086447E27946N","area_km2":1.776,"kind":"risky","risk_tier":"high","basin":"Koshi","sub_basin":"Tama Koshi","elevation_m":5042,"lake_type":"M(e)","country":"China"},"id":"GL086447E27946N"},
{"type":"Feature","geometry":{"type":"Polygon","coordinates":[[[86.85897151700004,27.68874232300004],[86.85575095500008,27.685373001000073],[86.86442757900005,27.687645216000078],[86.85897151700004,27.68874232300004]]]},"properties":{"id":"GL086858E27687N","area_km2":0.306,"kind":"risky","risk_tier":"high","basin":"Koshi","sub_basin":"Dudh Koshi","elevation_m":4762,"lake_type":"M(e)","country":"Nepal"},"id":"GL086858E27687N"},
{"type":"Feature","geometry":{"type":"Polygon","coordinates":[[[86.92294650709135,27.855272345576452],[86.93151370600006,27.84592313500006],[86.93314515972958,27.84839353530085],[86.92840096900014,27.853234660000094],[86.92294650709135,27.855272345576452]]]},"properties":{"id":"GL086928E27850N","area_km2":0.453,"kind":"risky","risk_tier":"high","basin":"Koshi","sub_basin":"Dudh Koshi","elevation_m":5394,"lake_type":"M(e)","country":"Nepal"},"id":"GL086928E27850N"},
{"type":"Feature","geometry":{"type":"Polygon","coordinates":[[[87.09432491700005,27.82673958000003],[87.09749033700007,27.83060322500004],[87.09318751800002,27.828368440000094],[87.09432491700005,27.82673958000003]]]},"properties":{"id":"GL087095E27829N","area_km2":0.137,"kind":"risky","risk_tier":"medium","basin":"Koshi","sub_basin":"Arun","elevation_m":5208,"lake_type":"M(e)","country":"Nepal"},"id":"GL087095E27829N"},
{"type":"Feature","geometry":{"type":"Polygon","coordinates":[[[87.89176237475638,27.694765808578822],[87.89434713500003,27.694214588000108],[87.89386993041764,27.695511835931672],[87.89176237475638,27.694765808578822]]]},"properties":{"id":"GL087893E27694N","area_km2":0.024,"kind":"risky","risk_tier":"low","basin":"Koshi","sub_basin":"Tamor","elevation_m":4571,"lake_type":"M(e)","country":"Nepal"},"id":"GL087893E27694N"},
{"type":"Feature","geometry":{"type":"Polygon","coordinates":[[[86.91340137445769,27.834826219225395],[86.91955157079717,27.828970161337832],[86.92012200214347,27.83353411735671],[86.91340137445769,27.834826219225395]]]},"properties":{"id":"GL086917E27832N","area_km2":0.368,"kind":"risky","risk_tier":"high","basin":"Koshi","sub_basin":"Dudh Koshi","elevation_m":5359,"lake_type":"M(e)","country":"Nepal"},"id":"GL086917E27832N"},
{"type":"Feature","geometry":{"type":"Polygon","coordinates":[[[86.95917111500007,27.75770309200004],[86.94985293426089,27.754478182095497],[86.95190396918098,27.751729110568384],[86.96473727810381,27.753711220557822],[86.96630596430609,27.75785972328142],[86.95917111500007,27.75770309200004]]]},"properties":{"id":"GL086958E27755N","area_km2":0.865,"kind":"risky","risk_tier":"medium","basin":"Koshi","sub_basin":"Dudh Koshi","elevation_m":4936,"lake_type":"M(e)","country":"Nepal"},"id":"GL086958E27755N"},
{"type":"Feature","geometry":{"type":"Polygon","coordinates":[[[86.95181710900006,27.778497599000037],[86.9594860810001,27.78075485400004],[86.96847352419532,27.78725126299875],[86.95793198900004,27.786644009000057],[86.95040323754537,27.78237826085666],[86.95181710900006,27.778497599000037]]]},"properties":{"id":"GL086957E27783N","area_km2":0.871,"kind":"risky","risk_tier":"high","basin":"Koshi","sub_basin":"Dudh Koshi","elevation_m":5197,"lake_type":"M(e)","country":"Nepal"},"id":"GL086957E27783N"},
{"type":"Feature","geometry":{"type":"Polygon","coordinates":[[[86.9789858080147,27.710193580339634],[86.97786101184711,27.71165168327919],[86.97548302617236,27.71141172440964],[86.9789858080147,27.710193580339634]]]},"properties":{"id":"GL086977E27711N","area_km2":0.047,"kind":"risky","risk_tier":"high","basin":"Koshi","sub_basin":"Dudh Koshi","elevation_m":4636,"lake_type":"M(e)","country":"Nepal"},"id":"GL086977E27711N"},
{"type":"Feature","geometry":{"type":"Polygon","coordinates":[[[87.74975052200007,27.81883385700007],[87.74921428587224,27.81227175751051],[87.75169566222866,27.818040955057935],[87.74975052200007,27.81883385700007]]]},"properties":{"id":"GL087749E27816N","area_km2":0.176,"kind":"risky","risk_tier":"high","basin":"Koshi","sub_basin":"Tamor","elevation_m":4902,"lake_type":"M(e)","country":"Nepal"},"id":"GL087749E27816N"},
{"type":"Feature","geometry":{"type":"Polygon","coordinates":[[[86.22338259232257,28.346285340383222],[86.22635622709707,28.340051572443084],[86.2297605930623,28.342274260884885],[86.22505656588254,28.353473983732915],[86.2218049620001,28.354563301000102],[86.22338259232257,28.346285340383222]]]},"properties":{"id":"GL086225E28346N","area_km2":0.578,"kind":"risky","risk_tier":"medium","basin":"Koshi","sub_basin":"Sun Koshi","elevation_m":5348,"lake_type":"M(e)","country":"China"},"id":"GL086225E28346N"},
{"type":"Feature","geometry":{"type":"Polygon","coordinates":[[[86.1669117547611,28.298537952180222],[86.15994750700011,28.304496901000057],[86.1516450290001,28.308839896000077],[86.1629491850001,28.29840654000009],[86.1669117547611,28.298537952180222]]]},"properties":{"id":"GL086157E28303N","area_km2":0.626,"kind":"risky","risk_tier":"high","basin":"Koshi","sub_basin":"Sun Koshi","elevation_m":5306,"lake_type":"M(e)","country":"China"},"id":"GL086157E28303N"},
{"type":"Feature","geometry":{"type":"Polygon","coordinates":[[[87.94637949361054,27.7822571195245],[87.94394149638026,27.780937200666063],[87.94621247518933,27.780750380265385],[87.94637949361054,27.7822571195245]]]},"properties":{"id":"GL087945E27781N","area_km2":0.051,"kind":"risky","risk_tier":"high","basin":"Koshi","sub_basin":"Tamor","elevation_m":4862,"lake_type":"M(e)","country":"Nepal"},"id":"GL087945E27781N"},
{"type":"Feature","geometry":{"type":"Polygon","coordinates":[[[87.93420697400012,27.789344479000118],[87.93538699600005,27.79291904800003],[87.93236685900008,27.79274839300005],[87.93420697400012,27.789344479000118]]]},"properties":{"id":"GL087934E27790N","area_km2":0.151,"kind":"risky","risk_tier":"low","basin":"Koshi","sub_basin":"Tamor","elevation_m":4934,"lake_type":"M(e)","country":"Nepal"},"id":"GL087934E27790N"},
{"type":"Feature","geometry":{"type":"Polygon","coordinates":[[[86.31068858846794,28.188920273700383],[86.31888471248915,28.198046119079223],[86.31219325200013,28.193776685000024],[86.31068858846794,28.188920273700383]]]},"properties":{"id":"GL086314E28194N","area_km2":0.285,"kind":"risky","risk_tier":"high","basin":"Koshi","sub_basin":"Tama Koshi","elevation_m":5245,"lake_type":"M(e)","country":"China"},"id":"GL086314E28194N"},
{"type":"Feature","geometry":{"type":"Polygon","coordinates":[[[86.36224272000008,28.241276795000015],[86.36998280600008,28.237524655000147],[86.37031545400006,28.239661340000136],[86.36224272000008,28.241276795000015]]]},"properties":{"id":"GL086371E28238N","area_km2":0.288,"kind":"risky","risk_tier":"high","basin":"Koshi","sub_basin":"Tama Koshi","elevation_m":5327,"lake_type":"M(e)","country":"China"},"id":"GL086371E28238N"},
{"type":"Feature","geometry":{"type":"Polygon","coordinates":[[[86.54243670639573,28.181281941634364],[86.53719972700009,28.186550923],[86.5306566400001,28.187991522000058],[86.52353757600011,28.186987099000135],[86.52260698363374,28.184275939067103],[86.53435732611817,28.18458272588498],[86.54243670639573,28.181281941634364]]]},"properties":{"id":"GL086532E28185N","area_km2":0.681,"kind":"risky","risk_tier":"high","basin":"Koshi","sub_basin":"Tama Koshi","elevation_m":5025,"lake_type":"M(e)","country":"China"},"id":"GL086532E28185N"},
{"type":"Feature","geometry":{"type":"Polygon","coordinates":[[[86.51769119400011,28.073519091000033],[86.5148816351225,28.07127568845723],[86.52443892176423,28.072433547143312],[86.52452176904926,28.07564329112339],[86.51769119400011,28.073519091000033]]]},"properties":{"id":"GL086520E28073N","area_km2":0.237,"kind":"risky","risk_tier":"high","basin":"Koshi","sub_basin":"Tama Koshi","elevation_m":5213,"lake_type":"M(e)","country":"China"},"id":"GL086520E28073N"},
{"type":"Feature","geometry":{"type":"Polygon","coordinates":[[[86.49821609909158,28.035260402851357],[86.4914709831073,28.034243700132375],[86.49419954638026,28.03142612461891],[86.50492223260642,28.03129609482565],[86.50621521032465,28.0358092467411],[86.49821609909158,28.035260402851357]]]},"properties":{"id":"GL086500E28033N","area_km2":0.604,"kind":"risky","risk_tier":"medium","basin":"Koshi","sub_basin":"Tama Koshi","elevation_m":5053,"lake_type":"M(l)","country":"China"},"id":"GL086500E28033N"},
{"type":"Feature","geometry":{"type":"Polygon","coordinates":[[[87.7831440615609,27.920550301751053],[87.77434515700006,27.927724822000158],[87.75738102248322,27.932515000241562],[87.7610876412123,27.92894956288046],[87.77578583800008,27.921909130000145],[87.7831440615609,27.920550301751053]]]},"properties":{"id":"GL087771E27926N","area_km2":1.017,"kind":"risky","risk_tier":"high","basin":"Koshi","sub_basin":"Arun","elevation_m":4909,"lake_type":"M(e)","country":"China"},"id":"GL087771E27926N"},
{"type":"Feature","geometry":{"type":"Polygon","coordinates":[[[87.63097223061943,28.051359033973256],[87.62477395800003,28.05426369800014],[87.6254060430028,28.051296679983174],[87.63097223061943,28.051359033973256]]]},"properties":{"id":"GL087626E28052N","area_km2":0.19,"kind":"risky","risk_tier":"high","basin":"Koshi","sub_basin":"Arun","elevation_m":5066,"lake_type":"M(e)","country":"China"},"id":"GL087626E28052N"},
{"type":"Feature","geometry":{"type":"Polygon","coordinates":[[[87.6294940152248,28.090406563367374],[87.63626029100006,28.090107022000044],[87.64342533292741,28.09292752082927],[87.64671782650989,28.097401727830665],[87.64042882091712,28.096605020388836],[87.634180695624,28.09210542768774],[87.62511701689107,28.093247948481544],[87.6294940152248,28.090406563367374]]]},"properties":{"id":"GL087636E28093N","area_km2":0.803,"kind":"risky","risk_tier":"high","basin":"Koshi","sub_basin":"Arun","elevation_m":5177,"lake_type":"M(e)","country":"China"},"id":"GL087636E28093N"},
{"type":"Feature","geometry":{"type":"Polygon","coordinates":[[[87.13465051702043,28.065307215512206],[87.13701543031061,28.065370465102898],[87.13572606500009,28.073002982000034],[87.1324163275805,28.0680374552733],[87.13465051702043,28.065307215512206]]]},"properties":{"id":"GL087134E28069N","area_km2":0.278,"kind":"risky","risk_tier":"high","basin":"Koshi","sub_basin":"Arun","elevation_m":4879,"lake_type":"M(e)","country":"China"},"id":"GL087134E28069N"},
{"type":"Feature","geometry":{"type":"Polygon","coordinates":[[[88.2849633960001,28.022491984000048],[88.28825586061356,28.011864863650306],[88.29218964299336,28.0106237677707],[88.28944175100008,28.020329482000104],[88.2849633960001,28.022491984000048]]]},"properties":{"id":"GL088288E28017N","area_km2":0.516,"kind":"risky","risk_tier":"medium","basin":"Koshi","sub_basin":"Arun","elevation_m":5268,"lake_type":"M(e)","country":"China"},"id":"GL088288E28017N"},
{"type":"Feature","geometry":{"type":"Polygon","coordinates":[[[87.93224900411582,27.939622501170177],[87.93495840178636,27.93855132578268],[87.93149381037041,27.95516739427503],[87.92592022075775,27.961133610696745],[87.93013227000003,27.949884265999962],[87.93224900411582,27.939622501170177]]]},"properties":{"id":"GL087930E27949N","area_km2":0.845,"kind":"risky","risk_tier":"high","basin":"Koshi","sub_basin":"Arun","elevation_m":5103,"lake_type":"M(e)","country":"China"},"id":"GL087930E27949N"},
{"type":"Feature","geometry":{"type":"Polygon","coordinates":[[[88.0026059904391,27.94322798153256],[88.0013387530001,27.93606771100013],[88.00249217315398,27.92818156845266],[87.99627145206973,27.91720820054343],[87.99788607968152,27.913653205024012],[88.00481597875635,27.924971389298182],[88.0056101230001,27.94048880200005],[88.0026059904391,27.94322798153256]]]},"properties":{"id":"GL088002E27928N","area_km2":1.11,"kind":"risky","risk_tier":"high","basin":"Koshi","sub_basin":"Arun","elevation_m":5336,"lake_type":"M(e)","country":"China"},"id":"GL088002E27928N"},
{"type":"Feature","geometry":{"type":"Polygon","coordinates":[[[88.0195136987921,27.929513185561667],[88.01684689872118,27.929817936183724],[88.0199795334002,27.92560050637174],[88.0195136987921,27.929513185561667]]]},"properties":{"id":"GL088019E27928N","area_km2":0.147,"kind":"risky","risk_tier":"high","basin":"Koshi","sub_basin":"Arun","elevation_m":5692,"lake_type":"M(e)","country":"China"},"id":"GL088019E27928N"},
{"type":"Feature","geometry":{"type":"Polygon","coordinates":[[[88.06090219895562,27.92484332837878],[88.06742158600007,27.92877847600012],[88.07090455415944,27.941476787618754],[88.06636060767086,27.941304737615347],[88.06090219895562,27.92484332837878]]]},"properties":{"id":"GL088066E27933N","area_km2":0.963,"kind":"risky","risk_tier":"high","basin":"Koshi","sub_basin":"Arun","elevation_m":5557,"lake_type":"M(e)","country":"China"},"id":"GL088066E27933N"},
{"type":"Feature","geometry":{"type":"Polygon","coordinates":[[[88.06617158166925,27.95470468904935],[88.07398433969594,27.942307756002602],[88.0806387472107,27.93631862681635],[88.08456046271638,27.939178820172362],[88.07526684616728,27.951961997982217],[88.0672895643423,27.956715356577515],[88.06617158166925,27.95470468904935]]]},"properties":{"id":"GL088075E27946N","area_km2":1.487,"kind":"risky","risk_tier":"high","basin":"Koshi","sub_basin":"Arun","elevation_m":5484,"lake_type":"M(e)","country":"China"},"id":"GL088075E27946N"},
{"type":"Feature","geometry":{"type":"Polygon","coordinates":[[[87.5855881840001,28.233666009000018],[87.59243612300007,28.227484185999966],[87.59119621600004,28.22264880500011],[87.5945515488168,28.22057127766908],[87.59495502100005,28.23045388300017],[87.58847348700009,28.23657693400003],[87.5855881840001,28.233666009000018]]]},"properties":{"id":"GL087591E28229N","area_km2":0.876,"kind":"risky","risk_tier":"medium","basin":"Koshi","sub_basin":"Arun","elevation_m":5410,"lake_type":"M(e)","country":"China"},"id":"GL087591E28229N"},
{"type":"Feature","geometry":{"type":"Polygon","coordinates":[[[87.57413929676002,28.18040659633778],[87.5644247070001,28.17959964299998],[87.54755981255919,28.18054035379814],[87.55723071717458,28.176277145476067],[87.56283168745183,28.175761826124536],[87.57810268830976,28.177657018694124],[87.57413929676002,28.18040659633778]]]},"properties":{"id":"GL087563E28178N","area_km2":1.12,"kind":"risky","risk_tier":"low","basin":"Koshi","sub_basin":"Arun","elevation_m":5011,"lake_type":"M(e)","country":"China"},"id":"GL087563E28178N"},
{"type":"Feature","geometry":{"type":"Polygon","coordinates":[[[86.93430222800009,27.83329968500008],[86.93897398165502,27.84076626445624],[86.93608104706412,27.84168336594987],[86.93430222800009,27.83329968500008]]]},"properties":{"id":"GL086935E27838N","area_km2":0.306,"kind":"risky","risk_tier":"high","basin":"Koshi","sub_basin":"Dudh Koshi","elevation_m":5201,"lake_type":"M(e)","country":"Nepal"},"id":"GL086935E27838N"},
{"type":"Feature","geometry":{"type":"Polygon","coordinates":[[[87.0816396250728,27.80162397211859],[87.07670241400291,27.801291461869365],[87.08185873428192,27.79694111316587],[87.0800649968773,27.794120695908813],[87.09855547300015,27.79452699100005],[87.10577647677178,27.795785341156773],[87.10652469255427,27.799361419586948],[87.1004559640001,27.801012202000095],[87.0816396250728,27.80162397211859]]]},"properties":{"id":"GL087092E27798N","area_km2":1.913,"kind":"risky","risk_tier":"high","basin":"Koshi","sub_basin":"Arun","elevation_m":4530,"lake_type":"M(e)","country":"Nepal"},"id":"GL087092E27798N"},
{"type":"Feature","geometry":{"type":"Polygon","coordinates":[[[82.67519235610968,29.801562309265137],[82.67451592286426,29.802757379081587],[82.67233615451391,29.802741421593627],[82.67519235610968,29.801562309265137]]]},"properties":{"id":"GL082673E29802N","area_km2":0.03,"kind":"risky","risk_tier":"medium","basin":"Karnali","sub_basin":"Mugu","elevation_m":4703,"lake_type":"M(e)","country":"Nepal"},"id":"GL082673E29802N"},
{"type":"Feature","geometry":{"type":"Polygon","coordinates":[[[80.38870288431644,30.44726636260743],[80.38493122160435,30.44646922498947],[80.38587898678253,30.44364791446276],[80.38870288431644,30.44726636260743]]]},"properties":{"id":"GL080387E30445N","area_km2":0.12,"kind":"risky","risk_tier":"high","basin":"Karnali","sub_basin":"Kali","elevation_m":4314,"lake_type":"M(e)","country":"India"},"id":"GL080387E30445N"},
{"type":"Feature","geometry":{"type":"Polygon","coordinates":[[[85.62964815149519,28.16118185741351],[85.63355720748518,28.16293899920663],[85.6291580513676,28.164200008829937],[85.62964815149519,28.16118185741351]]]},"properties":{"id":"GL085630E28162N","area_km2":0.141,"kind":"risky","risk_tier":"high","basin":"Gandaki","sub_basin":"Trishuli","elevation_m":4983,"lake_type":"M(e)","country":"Nepal"},"id":"GL085630E28162N"},
{"type":"Feature","geometry":{"type":"Polygon","coordinates":[[[84.49310289729732,28.479831218719468],[84.48043612707865,28.49822094531218],[84.47826354206165,28.49703517433722],[84.48236629746054,28.48820560316458],[84.48847430663723,28.481612607467262],[84.49310289729732,28.479831218719468]]]},"properties":{"id":"GL084485E28488N","area_km2":0.926,"kind":"risky","risk_tier":"high","basin":"Gandaki","sub_basin":"Marsyangdi","elevation_m":4033,"lake_type":"M(e)","country":"Nepal"},"id":"GL084485E28488N"},
{"type":"Feature","geometry":{"type":"Polygon","coordinates":[[[85.49633598327648,28.50850486755377],[85.49482035050363,28.511844592040976],[85.4900232596969,28.50552222425114],[85.49633598327648,28.50850486755377]]]},"properties":{"id":"GL085494E28508N","area_km2":0.277,"kind":"risky","risk_tier":"medium","basin":"Gandaki","sub_basin":"Trishuli","elevation_m":4749,"lake_type":"M(e)","country":"China"},"id":"GL085494E28508N"}
]}